UBAKUSAT                
1 43467U 98067NQ  19112.03134776  .00013054  00000-0  15515-3 0  9992
2 43467  51.6374 269.2295 0002460 211.7913 148.2933 15.61520868 53867
BATSU-CS1 (IRAZU)       
1 43468U 98067NR  19112.46690100  .00023792  00000-0  23077-3 0  9990
2 43468  51.6371 262.3820 0001271 272.4702  87.6148 15.66225086153978
CUBERRT                 
1 43546U 98067NU  19111.92238989  .00006387  00000-0  76316-4 0  9996
2 43546  51.6383 271.4962 0005319 273.9120  86.1266 15.62452671 43952
TEMPEST-D               
1 43547U 98067NV  19111.85651343  .00003981  00000-0  60301-4 0  9996
2 43547  51.6382 276.3026 0005250 265.7214  94.3178 15.57241123 43566
RAINCUBE                
1 43548U 98067NW  19111.84560071  .00013131  00000-0  16473-3 0  9991
2 43548  51.6371 273.9749 0005508 275.5200  84.5165 15.60082344 44043
HALOSAT                 
1 43549U 98067NX  19111.91136116  .00012354  00000-0  15561-3 0  9992
2 43549  51.6377 273.6696 0005347 280.0645  79.9745 15.60041285 43616
ENDUROSAT ONE           
1 43551U 98067NZ  19111.85587824  .00015120  00000-0  18042-3 0  9995
2 43551  51.6380 272.5538 0005872 286.3909  73.6439 15.61258448 44031
EQUISAT                 
1 43552U 98067PA  19111.86035310  .00012166  00000-0  15163-3 0  9993
2 43552  51.6388 273.3447 0006086 285.9031  74.1292 15.60335446 43986
AEROCUBE 12A            
1 43556U 18046C   19111.99035536  .00000488  00000-0  30001-4 0  9993
2 43556  51.6434 333.4032 0007964 220.2038 139.8353 15.28531739 42731
AEROCUBE 12B            
1 43557U 18046D   19111.99939573  .00000600  00000-0  34077-4 0  9991
2 43557  51.6438 333.4611 0007993 220.6937 139.3446 15.28426784 42688
UITMSAT-1               
1 43589U 98067PD  19111.86456206  .00013545  00000-0  16842-3 0  9991
2 43589  51.6364 274.0901 0005415 293.6668  66.3756 15.60286150 39711
MAYA-1                  
1 43590U 98067PE  19111.86041338  .00013692  00000-0  17004-3 0  9993
2 43590  51.6370 274.0646 0005487 294.2865  65.7555 15.60307493 39647
BHUTAN-1                
1 43591U 98067PF  19111.85311045  .00013907  00000-0  17225-3 0  9992
2 43591  51.6378 274.0288 0005663 295.0566  64.9839 15.60361538 39647
SIRIUSSAT-1             
1 43595U 98067PG  19112.51655534  .00013320  00000-0  16957-3 0  9994
2 43595  51.6367 271.6952 0003553 252.7188 107.3416 15.59684939 38919
SIRIUSSAT-2             
1 43596U 98067PH  19111.90019322  .00012331  00000-0  15854-3 0  9992
2 43596  51.6376 275.1054 0004134 250.4572 109.5975 15.59503687 38813
TANUSHA-3               
1 43597U 98067PJ  19112.52375261  .00016231  00000-0  19752-3 0  9993
2 43597  51.6364 270.9719 0003724 267.5663  92.4904 15.60688271 38925
SURFSAT                 
1 43614U 18070B   19112.12286210  .00002226  00000-0  60974-4 0  9992
2 43614  93.0283 339.9246 0016988 158.7386 201.4577 15.37264494 33569
CP7 (DAVE)              
1 43615U 18070C   19112.38635204  .00001999  00000-0  54893-4 0  9991
2 43615  93.0290 340.0352 0017068 157.6334 202.5667 15.37205394 33601
ELFIN-B                 
1 43616U 18070D   19111.89435242  .00003139  00000-0  84658-4 0  9997
2 43616  93.0252 339.7547 0017700 163.1339 197.0506 15.37701281 33539
ELFIN-A                 
1 43617U 18070E   19112.14986084  .00003061  00000-0  82507-4 0  9997
2 43617  93.0307 340.0305 0017015 158.7778 201.4185 15.37734790 33572
CUBEBEL-1 (BSUSAT-1)    
1 43666U 18083E   19112.39181564  .00001244  00000-0  65389-4 0  9992
2 43666  97.5245 137.2515 0016271  33.7705  91.3017 15.17455331 26593
DEBRISSAT-2             
1 43680U 98067PR  19111.94931491  .00019050  00000-0  22836-3 0  9993
2 43680  51.6380 273.9151 0003029 281.3333  78.7318 15.60953921 47579
CICERO 10               
1 43690U 18088A   19111.87584650  .00001057  00000-0  47704-4 0  9992
2 43690  85.0401 356.5746 0017376  63.5099 296.7921 15.19547354 24572
IRVINE01                
1 43693U 18088D   19111.92666819  .00002078  00000-0  91096-4 0  9996
2 43693  85.0375 356.2643 0020550  49.9909 310.3132 15.21134447 24580
PROXIMA I               
1 43694U 18088E   19112.47968459  .00000927  00000-0  39441-4 0  9990
2 43694  85.0344 355.7635 0021072  39.9244 320.3542 15.21282745 24674
PROXIMA II              
1 43696U 18088G   19111.88703983  .00000925  00000-0  39317-4 0  9995
2 43696  85.0346 356.1556 0021160  41.8729 318.4127 15.21287329 24583
FACSAT-1                
1 43721U 18096C   19112.43229266  .00001428  00000-0  58003-4 0  9994
2 43721  97.4637 182.3843 0018605 166.8456 193.3271 15.26105334 22000
CENTAURI-2              
1 43722U 18096D   19111.89590383  .00001890  00000-0  75425-4 0  9995
2 43722  97.4637 181.8750 0018689 169.5477 190.6153 15.26288960 21912
INNOSAT-2               
1 43738U 18096V   19112.49581728  .00002659  00000-0  98258-4 0  9995
2 43738  97.4633 182.9096 0024926 180.5662 179.5553 15.28357380 22040
SIRION PATHFINDER-2     
1 43759U 18099B   19112.49720521  .00000178  00000-0  21459-4 0  9990
2 43759  97.7485 185.1722 0015203 146.3725 213.8463 14.95102461 20872
CORVUS-BC 4             
1 43767U 18099K   19111.94640419  .00000552  00000-0  56356-4 0  9995
2 43767  97.7471 184.4825 0012660 150.1991 209.9952 14.94544659 20792
SHIELDS 1               
1 43850U 18104B   19112.01641792  .00000041  00000-0  00000+0 0  9992
2 43850  85.0239  94.5674 0014763 171.7553 188.3978 15.21023666 19257
STF-1                   
1 43852U 18104D   19112.33151579  .00000041  00000-0  00000+0 0  9998
2 43852  85.0282  94.5168 0013903 186.3817 173.7418 15.20481238 19298
LUME 1                  
1 43908U 18111AJ  19111.89918580  .00000888  00000-0  39104-4 0  9992
2 43908  97.2940  18.7165 0021266 190.9719 169.1058 15.24205772 17641
AOBA VELOX-IV           
1 43940U 19003J   19112.42192985  .00001614  00000-0  69968-4 0  9991
2 43940  97.2832 172.0207 0022631 274.0699 209.9014 15.23583088 14365
CATSAT-2                
1 44029U 98067PV  19111.93400907  .00009964  00000-0  15065-3 0  9992
2 44029  51.6390 279.8238 0004592 291.7979  68.2524 15.55367566 12580
DELPHINI                
1 44030U 98067PW  19111.93225935  .00010895  00000-0  16369-3 0  9993
2 44030  51.6385 279.8084 0004417 288.7524  71.2987 15.55427746 12554
UNITE                   
1 44031U 98067PX  19111.87828963  .00006867  00000-0  10773-3 0  9994
2 44031  51.6389 280.1986 0002967 286.1712  73.8952 15.54932775 12545
TECHEDSAT 8             
1 44032U 98067PY  19112.01817169  .00022974  00000-0  31607-3 0  9994
2 44032  51.6382 278.8833 0003757 280.1902  79.8666 15.57159367 12557
CATSAT-1                
1 44033U 98067PZ  19112.25516801  .00009391  00000-0  14240-3 0  9992
2 44033  51.6391 278.2189 0004454 293.4285  66.6237 15.55367588 12543
